start=new Date('2022-06-11T00:00:00.000Z').valueOf();
sats=[{"RCS_SIZE":"LARGE","EPOCH":"2022-06-10T12:03:14.730912","DECAY_DATE":null,"REV_AT_EPOCH":"7151","CENTER_NAME":"EARTH","TIME_SYSTEM":"UTC","RA_OF_ASC_NODE":"233.6606","OBJECT_ID":"2021-017AR","MEAN_MOTION":"15.06394310","BSTAR":"0.00006871400000","LAUNCH_DATE":"2021-03-04","PERIOD":"95.593","NORAD_CAT_ID":"47761","OBJECT_TYPE":"PAYLOAD","TLE_LINE1":"1 47761U 21017AR  22161.50225383  .00000742  00000-0  68714-4 0  9999","OBJECT_NAME":"STARLINK-2179","ECCENTRICITY":"0.00011790","COUNTRY_CODE":"US","EPHEMERIS_TYPE":"0","SEMIMAJOR_AXIS":"6925.366","INCLINATION":"53.0535","MEAN_ELEMENT_THEORY":"SGP4","REF_FRAME":"TEME","PERIAPSIS":"546.414","TLE_LINE2":"2 47761  53.0535 233.6606 0001179  79.6967 280.4155 15.06394310 71517","MEAN_MOTION_DOT":"0.00000742","FILE":"3489795","ELEMENT_SET_NO":"999","MEAN_MOTION_DDOT":"0.0000000000000","APOAPSIS":"548.047","SITE":"AFETR","MEAN_ANOMALY":"280.4155","ARG_OF_PERICENTER":"79.6967","GP_ID":"205821945","CLASSIFICATION_TYPE":"U"},{"RCS_SIZE":"LARGE","DECAY_DATE":null,"EPOCH":"2022-06-10T12:41:03.830784","REV_AT_EPOCH":"7132","CENTER_NAME":"EARTH","TIME_SYSTEM":"UTC","RA_OF_ASC_NODE":"248.5495","OBJECT_ID":"2021-017AS","MEAN_MOTION":"15.06391388","BSTAR":"-0.00003264500000","LAUNCH_DATE":"2021-03-04","PERIOD":"95.593","NORAD_CAT_ID":"47762","OBJECT_TYPE":"PAYLOAD","ECCENTRICITY":"0.00017440","TLE_LINE1":"1 47762U 21017AS  22161.52851656 -.00000768  00000-0 -32645-4 0  9994","OBJECT_NAME":"STARLINK-2180","COUNTRY_CODE":"US","EPHEMERIS_TYPE":"0","SEMIMAJOR_AXIS":"6925.375","INCLINATION":"53.0554","MEAN_ELEMENT_THEORY":"SGP4","REF_FRAME":"TEME","PERIAPSIS":"546.032","TLE_LINE2":"2 47762  53.0554 248.5495 0001744  50.0476 310.0666 15.06391388 71324","MEAN_MOTION_DOT":"-0.00000768","FILE":"3489795","ELEMENT_SET_NO":"999","MEAN_MOTION_DDOT":"0.0000000000000","APOAPSIS":"548.448","SITE":"AFETR","MEAN_ANOMALY":"310.0666","ARG_OF_PERICENTER":"50.0476","GP_ID":"205822194","CLASSIFICATION_TYPE":"U"},{"CLASSIFICATION_TYPE":"U","GP_ID":"205863180","ARG_OF_PERICENTER":"58.7338","MEAN_ANOMALY":"301.3811","SITE":"AFETR","APOAPSIS":"548.358","MEAN_MOTION_DDOT":"0.0000000000000","FILE":"3490466","ELEMENT_SET_NO":"999","TLE_LINE2":"2 47763  53.0546 238.1784 0001631  58.7338 301.3811 15.06395218 71454","MEAN_MOTION_DOT":"0.00000768","PERIAPSIS":"546.099","REF_FRAME":"TEME","INCLINATION":"53.0546","MEAN_ELEMENT_THEORY":"SGP4","EPHEMERIS_TYPE":"0","SEMIMAJOR_AXIS":"6925.363","COUNTRY_CODE":"US","TLE_LINE1":"1 47763U 21017AT  22161.61052663  .00000768  00000-0  70479-4 0  9991","OBJECT_NAME":"STARLINK-2181","ECCENTRICITY":"0.00016310","OBJECT_TYPE":"PAYLOAD","NORAD_CAT_ID":"47763","LAUNCH_DATE":"2021-03-04","PERIOD":"95.592","BSTAR":"0.00007047900000","MEAN_MOTION":"15.06395218","OBJECT_ID":"2021-017AT","RA_OF_ASC_NODE":"238.1784","REV_AT_EPOCH":"7145","CENTER_NAME":"EARTH","TIME_SYSTEM":"UTC","EPOCH":"2022-06-10T14:39:09.500832","DECAY_DATE":null,"RCS_SIZE":"LARGE"},{"EPOCH":"2022-06-10T12:19:49.897344","DECAY_DATE":null,"REV_AT_EPOCH":"7135","CENTER_NAME":"EARTH","TIME_SYSTEM":"UTC","RCS_SIZE":"LARGE","OBJECT_ID":"2021-017AU","MEAN_MOTION":"15.06386024","RA_OF_ASC_NODE":"248.6060","NORAD_CAT_ID":"47764","BSTAR":"0.00012231000000","LAUNCH_DATE":"2021-03-04","PERIOD":"95.593","TLE_LINE1":"1 47764U 21017AU  22161.51377196  .00001540  00000-0  12231-3 0  9992","ECCENTRICITY":"0.00014800","OBJECT_NAME":"STARLINK-2182","COUNTRY_CODE":"US","OBJECT_TYPE":"PAYLOAD","EPHEMERIS_TYPE":"0","SEMIMAJOR_AXIS":"6925.391","MEAN_ELEMENT_THEORY":"SGP4","INCLINATION":"53.0556","FILE":"3489795","ELEMENT_SET_NO":"999","PERIAPSIS":"546.231","REF_FRAME":"TEME","TLE_LINE2":"2 47764  53.0556 248.6060 0001480  65.9230 294.1914 15.06386024 71359","MEAN_MOTION_DOT":"0.00001540","MEAN_MOTION_DDOT":"0.0000000000000","APOAPSIS":"548.281","SITE":"AFETR","MEAN_ANOMALY":"294.1914","GP_ID":"205822697","CLASSIFICATION_TYPE":"U","ARG_OF_PERICENTER":"65.9230"},{"PERIAPSIS":"546.039","REF_FRAME":"TEME","TLE_LINE2":"2 47766  53.0549 247.6304 0001742  52.7333 307.3815 15.06389715 71326","MEAN_MOTION_DOT":"-0.00001004","FILE":"3490466","ELEMENT_SET_NO":"999","EPHEMERIS_TYPE":"0","SEMIMAJOR_AXIS":"6925.380","INCLINATION":"53.0549","MEAN_ELEMENT_THEORY":"SGP4","ARG_OF_PERICENTER":"52.7333","GP_ID":"205862180","CLASSIFICATION_TYPE":"U","APOAPSIS":"548.451","MEAN_MOTION_DDOT":"0.0000000000000","SITE":"AFETR","MEAN_ANOMALY":"307.3815","RA_OF_ASC_NODE":"247.6304","OBJECT_ID":"2021-017AW","MEAN_MOTION":"15.06389715","RCS_SIZE":"LARGE","EPOCH":"2022-06-10T17:32:59.707968","DECAY_DATE":null,"REV_AT_EPOCH":"7132","TIME_SYSTEM":"UTC","CENTER_NAME":"EARTH","OBJECT_TYPE":"PAYLOAD","TLE_LINE1":"1 47766U 21017AW  22161.73124662 -.00001004  00000-0 -48533-4 0  9998","ECCENTRICITY":"0.00017420","OBJECT_NAME":"STARLINK-2184","COUNTRY_CODE":"US","BSTAR":"-0.00004853300000","LAUNCH_DATE":"2021-03-04","PERIOD":"95.593","NORAD_CAT_ID":"47766"},{"EPHEMERIS_TYPE":"0","SEMIMAJOR_AXIS":"6925.348","MEAN_ELEMENT_THEORY":"SGP4","INCLINATION":"53.0541","REF_FRAME":"TEME","PERIAPSIS":"546.015","TLE_LINE2":"2 47767  53.0541 232.8116 0001730  62.1948 297.9216 15.06400098 71596","MEAN_MOTION_DOT":"0.00002526","FILE":"3490466","ELEMENT_SET_NO":"999","MEAN_MOTION_DDOT":"0.0000000000000","APOAPSIS":"548.411","MEAN_ANOMALY":"297.9216","SITE":"AFETR","ARG_OF_PERICENTER":"62.1948","GP_ID":"205862430","CLASSIFICATION_TYPE":"U","RCS_SIZE":"LARGE","EPOCH":"2022-06-10T16:33:55.874592","DECAY_DATE":null,"CENTER_NAME":"EARTH","REV_AT_EPOCH":"7159","TIME_SYSTEM":"UTC","RA_OF_ASC_NODE":"232.8116","OBJECT_ID":"2021-017AX","MEAN_MOTION":"15.06400098","BSTAR":"0.00018843000000","LAUNCH_DATE":"2021-03-04","PERIOD":"95.592","NORAD_CAT_ID":"47767","OBJECT_TYPE":"PAYLOAD","ECCENTRICITY":"0.00017300","TLE_LINE1":"1 47767U 21017AX  22161.69023003  .00002526  00000-0  18843-3 0  9999","OBJECT_NAME":"STARLINK-2185","COUNTRY_CODE":"US"},{"MEAN_MOTION":"15.03948907","OBJECT_ID":"2021-017AY","RA_OF_ASC_NODE":"247.9893","REV_AT_EPOCH":"7135","CENTER_NAME":"EARTH","TIME_SYSTEM":"UTC","DECAY_DATE":null,"EPOCH":"2022-06-10T17:25:30.041760","RCS_SIZE":"LARGE","COUNTRY_CODE":"US","ECCENTRICITY":"0.00016100","TLE_LINE1":"1 47768U 21017AY  22161.72604215  .00000925  00000-0  86043-4 0  9993","OBJECT_NAME":"STARLINK-2189","OBJECT_TYPE":"PAYLOAD","NORAD_CAT_ID":"47768","LAUNCH_DATE":"2021-03-04","PERIOD":"95.748","BSTAR":"0.00008604300000","FILE":"3490466","ELEMENT_SET_NO":"999","TLE_LINE2":"2 47768  53.0550 247.9893 0001610  57.3001 302.8142 15.03948907 71350","MEAN_MOTION_DOT":"0.00000925","REF_FRAME":"TEME","PERIAPSIS":"553.620","MEAN_ELEMENT_THEORY":"SGP4","INCLINATION":"53.0550","EPHEMERIS_TYPE":"0","SEMIMAJOR_AXIS":"6932.871","CLASSIFICATION_TYPE":"U","GP_ID":"205863680","ARG_OF_PERICENTER":"57.3001","MEAN_ANOMALY":"302.8142","SITE":"AFETR","APOAPSIS":"555.852","MEAN_MOTION_DDOT":"0.0000000000000"},{"ARG_OF_PERICENTER":"51.4311","CLASSIFICATION_TYPE":"U","GP_ID":"205863931","MEAN_ANOMALY":"308.6843","SITE":"AFETR","MEAN_MOTION_DDOT":"0.0000000000000","APOAPSIS":"548.511","MEAN_MOTION_DOT":"-0.00000115","TLE_LINE2":"2 47769  53.0560 211.9895 0001846  51.4311 308.6843 15.06393913 71890","REF_FRAME":"TEME","PERIAPSIS":"545.954","ELEMENT_SET_NO":"999","FILE":"3490466","INCLINATION":"53.0560","MEAN_ELEMENT_THEORY":"SGP4","SEMIMAJOR_AXIS":"6925.367","EPHEMERIS_TYPE":"0","OBJECT_TYPE":"PAYLOAD","COUNTRY_CODE":"US","TLE_LINE1":"1 47769U 21017AZ  22161.87269291 -.00000115  00000-0  11195-4 0  9999","OBJECT_NAME":"STARLINK-2192","ECCENTRICITY":"0.00018460","PERIOD":"95.593","LAUNCH_DATE":"2021-03-04","BSTAR":"0.00001119500000","NORAD_CAT_ID":"47769","RA_OF_ASC_NODE":"211.9895","MEAN_MOTION":"15.06393913","OBJECT_ID":"2021-017AZ","RCS_SIZE":"LARGE","REV_AT_EPOCH":"7189","CENTER_NAME":"EARTH","TIME_SYSTEM":"UTC","EPOCH":"2022-06-10T20:56:40.667424","DECAY_DATE":null},{"TLE_LINE1":"1 47770U 21017BA  22161.88052562 -.00001384  00000-0 -74046-4 0  9997","ECCENTRICITY":"0.00018330","OBJECT_NAME":"STARLINK-2193","COUNTRY_CODE":"US","OBJECT_TYPE":"PAYLOAD","NORAD_CAT_ID":"47770","BSTAR":"-0.00007404600000","LAUNCH_DATE":"2021-03-04","PERIOD":"95.593","OBJECT_ID":"2021-017BA","MEAN_MOTION":"15.06388503","RA_OF_ASC_NODE":"226.9526","EPOCH":"2022-06-10T21:07:57.413568","DECAY_DATE":null,"REV_AT_EPOCH":"7166","CENTER_NAME":"EARTH","TIME_SYSTEM":"UTC","RCS_SIZE":"LARGE","GP_ID":"205862680","CLASSIFICATION_TYPE":"U","ARG_OF_PERICENTER":"52.6207","MEAN_MOTION_DDOT":"0.0000000000000","APOAPSIS":"548.518","SITE":"AFETR","MEAN_ANOMALY":"307.4949","FILE":"3490466","ELEMENT_SET_NO":"999","REF_FRAME":"TEME","PERIAPSIS":"545.979","TLE_LINE2":"2 47770  53.0514 226.9526 0001833  52.6207 307.4949 15.06388503 71669","MEAN_MOTION_DOT":"-0.00001384","EPHEMERIS_TYPE":"0","SEMIMAJOR_AXIS":"6925.384","MEAN_ELEMENT_THEORY":"SGP4","INCLINATION":"53.0514"},{"OBJECT_TYPE":"PAYLOAD","OBJECT_NAME":"STARLINK-2194","TLE_LINE1":"1 47771U 21017BB  22161.36081020  .00000157  00000-0  29429-4 0  9992","ECCENTRICITY":"0.00016540","COUNTRY_CODE":"US","BSTAR":"0.00002942900000","PERIOD":"95.593","LAUNCH_DATE":"2021-03-04","NORAD_CAT_ID":"47771","RA_OF_ASC_NODE":"229.2962","OBJECT_ID":"2021-017BB","MEAN_MOTION":"15.06388833","RCS_SIZE":"LARGE","DECAY_DATE":null,"EPOCH":"2022-06-10T08:39:34.001280","REV_AT_EPOCH":"7159","CENTER_NAME":"EARTH","TIME_SYSTEM":"UTC","ARG_OF_PERICENTER":"58.4334","GP_ID":"205822195","CLASSIFICATION_TYPE":"U","APOAPSIS":"548.393","MEAN_MOTION_DDOT":"0.0000000000000","SITE":"AFETR","MEAN_ANOMALY":"301.6816","PERIAPSIS":"546.102","REF_FRAME":"TEME","MEAN_MOTION_DOT":"0.00000157","TLE_LINE2":"2 47771  53.0544 229.2962 0001654  58.4334 301.6816 15.06388833 71596","ELEMENT_SET_NO":"999","FILE":"3489795","SEMIMAJOR_AXIS":"6925.383","EPHEMERIS_TYPE":"0","INCLINATION":"53.0544","MEAN_ELEMENT_THEORY":"SGP4"}];
